STARLINK-3664           
1 51984U 22025AE  22087.58335648  .00019481  00000+0  14295-3 0  9995
2 51984  53.2186  45.6074 0000883  81.6354 207.9368 15.73190828  3222
STARLINK-3651           
1 51985U 22025AF  22087.58335648  .00025532  00000+0  18573-3 0  9993
2 51985  53.2183  45.6128 0001143  87.0032 199.3828 15.73206639  3226
STARLINK-3645           
1 51986U 22025AG  22087.58335648 -.00016409  00000+0 -11267-3 0  9992
2 51986  53.2186  45.6051 0001131  99.2314 191.6346 15.73212636  3224
STARLINK-3644           
1 51987U 22025AH  22087.58335648 -.00076281  00000+0 -54313-3 0  9996
2 51987  53.2182  45.6096 0001172 103.0307 185.2662 15.73238566  3221
STARLINK-3640           
1 51988U 22025AJ  22087.58335648 -.00065120  00000+0 -46221-3 0  9996
2 51988  53.2187  45.6039 0001198 100.4649 191.0149 15.73248000  3221
STARLINK-3642           
1 51989U 22025AK  22087.58335648  .00026843  00000+0  19499-3 0  9991
2 51989  53.2183  45.6085 0001194  80.2095 208.7119 15.73208767  3224
STARLINK-3657           
1 51990U 22025AL  22087.58335648 -.00067198  00000+0 -47688-3 0  9994
2 51990  53.2186  45.6015 0001010  87.0375 205.6902 15.73265308  3225
STARLINK-3652           
1 51991U 22025AM  22087.58335648 -.00019455  00000+0 -13435-3 0  9991
2 51991  53.2183  45.6057 0001084  83.1511 207.0430 15.73230174  3224
STARLINK-3643           
1 51992U 22025AN  22087.58335648 -.00029664  00000+0 -20737-3 0  9998
2 51992  53.2186  45.5975 0001032  97.3082 197.3775 15.73236187  3222
STARLINK-3648           
1 51993U 22025AP  22087.58335648  .00024368  00000+0  17751-3 0  9995
2 51993  53.2181  45.6016 0001043  77.6681 214.4752 15.73203215  3225
STARLINK-3647           
1 51994U 22025AQ  22087.58335648 -.00008649  00000+0 -57203-4 0  9999
2 51994  53.2187  45.5967 0001096  90.4339 204.8724 15.73227137  3228
STARLINK-3636           
1 51995U 22025AR  22087.58335648 -.00074141  00000+0 -52739-3 0  9998
2 51995  53.2194  45.6001 0001014  88.5732 204.8437 15.73249954  3224
STARLINK-3538           
1 51996U 22025AS  22087.58335648  .00008033  00000+0  61539-4 0  9993
2 51996  53.2187  45.5950 0001078  80.5707 215.3798 15.73221469  3221
STARLINK-3589           
1 51997U 22025AT  22087.58335648 -.00029465  00000+0 -20588-3 0  9996
2 51997  53.2183  45.5984 0001136  95.2273 198.7968 15.73242778  3220
STARLINK-3618           
1 51998U 22025AU  22087.58335648 -.00003980  00000+0 -23919-4 0  9993
2 51998  53.2188  45.5928 0001161  89.1245 208.0944 15.73231634  3221
STARLINK-3667           
1 51999U 22025AV  22087.58335648 -.00034330  00000+0 -24074-3 0  9999
2 51999  53.2184  45.5933 0000827  80.8459 215.7361 15.73244086  3220
STARLINK-3653           
1 52000U 22025AW  22087.58335648 -.00073051  00000+0 -51947-3 0  9995
2 52000  53.2188  45.5902 0001039  99.2333 199.3004 15.73251253  3220
STARLINK-3659           
1 52001U 22025AX  22087.58335648  .00026191  00000+0  19034-3 0  9998
2 52001  53.2183  45.5906 0000942  91.0640 206.8087 15.73213373  3229
STARLINK-3668           
1 52002U 22025AY  22087.58335648  .00028979  00000+0  21020-3 0  9993
2 52002  53.2188  45.5891 0000922  95.7688 203.4072 15.73198058  3228
STARLINK-3654           
1 52003U 22025AZ  22087.58335648 -.00061453  00000+0 -43568-3 0  9991
2 52003  53.2186  45.5869 0000982  79.1647 220.6345 15.73252260  3229
FALCON 9 DEB            
1 52004U 22025BA  22087.15388340  .00312612  49016-4  83048-3 0  9998
2 52004  53.2280  46.3086 0005093 290.3540  69.6942 15.94125293  3123
FALCON 9 DEB            
1 52005U 22025BB  22087.14717418  .00350482  59668-4  88037-3 0  9994
2 52005  53.2245  46.2583 0005668 263.5526  96.4858 15.95144036  3121
FALCON 9 DEB            
1 52006U 22025BC  22087.25823513  .00331888  55348-4  77224-3 0  9997
2 52006  53.2217  45.5121 0009235 284.9235  75.0772 15.96507276  3149
FALCON 9 DEB            
1 52007U 22025BD  22087.25574504  .00320469  52263-4  74740-3 0  9997
2 52007  53.2202  45.4921 0009960 269.9659  90.0229 15.96457475  3148
2022-026A               
1 52008U 22026A   22087.44049286  .00010992  00000+0  50839-3 0  9991
2 52008  97.4879  88.4996 0047837 227.0342 132.6878 15.19288568  1946
SPACEBEE-121            
1 52009U 22026B   22087.48702874  .00009255  00000+0  51146-3 0  9997
2 52009  97.5025  88.4536 0028029 189.9571 170.1109 15.13778313  1932
SPACEBEE-114            
1 52010U 22026C   22087.48752195  .00009046  00000+0  50110-3 0  9998
2 52010  97.5040  88.4537 0027318 192.5863 167.4689 15.13717688  1947
SPACEBEE-126            
1 52011U 22026D   22082.46363030 -.00000067  00000+0  00000+0 0  9992
2 52011  97.5007  83.5048 0026866 207.5582 152.4339 15.13572263  1175
SPACEBEE-118            
1 52012U 22026E   22087.48717933  .00010620  00000+0  58683-3 0  9994
2 52012  97.5041  88.4555 0026815 193.6732 166.3777 15.13774266  1949
SPACEBEE-120            
1 52013U 22026F   22087.42096487  .00010302  00000+0  56852-3 0  9996
2 52013  97.5024  88.3885 0028806 187.6542 172.4254 15.13779327  1929
SPACEBEE-122            
1 52014U 22026G   22087.48707395  .00010111  00000+0  55834-3 0  9997
2 52014  97.5027  88.4538 0027993 191.1099 168.9518 15.13782939  1939
SPACEBEE-119            
1 52015U 22026H   22086.95819697  .00008948  00000+0  49481-3 0  9994
2 52015  97.5042  87.9341 0028065 191.9115 168.1456 15.13767615  1859
2022-026J               
1 52016U 22026J   22086.95817098  .00016165  00000+0  88942-3 0  9993
2 52016  97.5025  87.9309 0028053 192.0220 168.0345 15.13793297  1852
2022-026K               
1 52017U 22026K   22087.48717420  .00006727  00000+0  37337-3 0  9996
2 52017  97.5026  88.4536 0027832 190.3270 169.7394 15.13736089  1939
2022-026L               
1 52018U 22026L   22087.22235874  .00013484  00000+0  74203-3 0  9998
2 52018  97.5041  88.1947 0027975 191.2674 168.7935 15.13830670  1892
SPACEBEENZ-11           
1 52019U 22026M   22087.48676511  .00011997  00000+0  66061-3 0  9994
2 52019  97.5038  88.4548 0028093 190.1274 169.9395 15.13835732  1892
2022-026N               
1 52020U 22026N   22086.75986914  .00009550  00000+0  52787-3 0  9998
2 52020  97.5033  87.7376 0027819 192.8218 167.2310 15.13769321  1777
SPACEBEE-125            
1 52021U 22026P   22086.49540354  .00008324  00000+0  46029-3 0  9994
2 52021  97.5032  87.4773 0028593 192.4815 167.5712 15.13779347  1659
SPACEBEE-117            
1 52022U 22026Q   22087.48693825  .00009404  00000+0  51948-3 0  9993
2 52022  97.5040  88.4549 0028021 190.2705 169.7958 15.13789749  1801
SPACEBEE-116            
1 52023U 22026R   22086.95811624  .00007745  00000+0  42876-3 0  9990
2 52023  97.5041  87.9340 0027948 192.1058 167.9505 15.13776695  1720
SPACEBEE-113            
1 52024U 22026S   22087.48679697  .00010861  00000+0  59797-3 0  9995
2 52024  97.5037  88.4545 0029865 187.7001 172.3776 15.13820982  1805
SPACEBEE-112            
1 52025U 22026T   22087.48683185  .00010616  00000+0  58545-3 0  9991
2 52025  97.5040  88.4550 0028005 190.3238 169.7422 15.13814099  1803
2022-026U               
1 52026U 22026U   22087.48675821  .00011549  00000+0  63617-3 0  9992
2 52026  97.5029  88.4540 0028082 189.8917 170.1766 15.13833537  1717
2022-026V               
1 52027U 22026V   22087.48697101  .00010330  00000+0  57017-3 0  9992
2 52027  97.5028  88.4537 0027885 190.1771 169.8900 15.13795841  1716
YAOGAN-34 02            
1 52084U 22027A   22087.19157424  .00000049  00000+0  22975-3 0  9994
2 52084  63.3976 201.7687 0012931 265.0599  94.8954 13.46729860  1475
CZ-4C R/B               
1 52085U 22027B   22087.55474651 -.00000108  00000+0 -14676-4 0  9997
2 52085  63.3983 199.8783 0102137  42.4607 318.4279 13.65321869  1544
SOYUZ-MS 21             
1 52086U 22028A   22086.69379328  .00007595  00000+0  14298-3 0  9992
2 52086  51.6447  20.2107 0003985 318.0521 112.2905 15.49580653332540
STARLINK-3537           
1 52088U 22029A   22087.58335648  .00155521  19787-4  53140-3 0  9990
2 52088  53.2166  97.1460 0009748 317.5806 120.9390 15.89417956  2228
STARLINK-3722           
1 52089U 22029B   22087.58335648 -.00034063  00000+0 -23856-3 0  9994
2 52089  53.2164  97.6406 0001363  59.8275 137.5006 15.73268122  2212
STARLINK-3712           
1 52090U 22029C   22087.58335648 -.00028898  00000+0 -20180-3 0  9992
2 52090  53.2166  97.6376 0001431  51.6028 147.4234 15.73244008  2258
STARLINK-3713           
1 52091U 22029D   22087.58335648 -.00030179  00000+0 -21077-3 0  9994
2 52091  53.2163  97.6392 0001208  56.5360 141.3691 15.73266834  2216
STARLINK-3716           
1 52092U 22029E   22087.58335648  .00059382  00000+0  42414-3 0  9998
2 52092  53.2166  97.6387 0001194  50.5220 147.8102 15.73221727  2251
STARLINK-3673           
1 52093U 22029F   22087.58335648 -.00579895  00000+0 -43752-2 0  9992
2 52093  53.2170  97.6323 0001682  44.0886 157.1870 15.73430489  2214
STARLINK-3714           
1 52094U 22029G   22087.58335648 -.00137672  00000+0 -98775-3 0  9992
2 52094  53.2166  97.6363 0001332  53.7681 145.8077 15.73314533  2221
STARLINK-3701           
1 52095U 22029H   22087.58335648 -.00015679  00000+0 -10730-3 0  9990
2 52095  53.2169  97.6298 0001545  61.7339 140.5387 15.73241659  2265
STARLINK-3717           
1 52096U 22029J   22087.58335648 -.00876889  00000+0 -51174-2 0  9995
2 52096  53.2171  97.3090 0000993  68.1128 294.0886 15.79984317  2269
STARLINK-3676           
1 52097U 22029K   22087.58335648  .00165003  20849-4  57049-3 0  9999
2 52097  53.2162  97.1590 0009172 317.7158 113.9357 15.89169170  2228
STARLINK-3665           
1 52098U 22029L   22087.58335648 -.00236448  00000+0 -17202-2 0  9992
2 52098  53.2169  97.6315 0001147  49.2058 152.5609 15.73306446  2216
STARLINK-3662           
1 52099U 22029M   22087.58335648  .00171603  21677-4  58723-3 0  9994
2 52099  53.2159  97.1497 0009199 322.2922 113.7231 15.89357374  2269
